OBJECT_NAME,OBJECT_ID,EPOCH,MEAN_MOTION,ECCENTRICITY,INCLINATION,RA_OF_ASC_NODE,ARG_OF_PERICENTER,MEAN_ANOMALY,EPHEMERIS_TYPE,CLASSIFICATION_TYPE,NORAD_CAT_ID,ELEMENT_SET_NO,REV_AT_EPOCH,BSTAR,MEAN_MOTION_DOT,MEAN_MOTION_DDOT
SAR-LUPE 2,2007-030A,2026-06-09T12:47:03.444864,15.48947770,.0007517,98.1023,264.0250,149.9367,210.2314,0,U,31797,999,5575,.64114E-3,.34666E-3,0
SAPPHIRE,2013-009C,2026-06-09T11:50:13.617888,14.35238398,.0009975,98.4259,340.1319,272.3471,87.6573,0,U,39088,999,69547,.5086E-4,.103E-5,0
PRAETORIAN SDA_602,2025-203A,2026-06-09T08:42:24.857280,13.84342083,.0005379,81.3036,18.0174,206.5269,153.5613,0,U,65565,999,3761,.25241E-4,.4E-6,0
PRAETORIAN SDA_603,2025-203B,2026-06-09T07:33:10.355616,13.83905184,.0008924,81.3041,17.9732,209.7479,150.3171,0,U,65566,999,3761,.49254E-4,.66E-6,0
PRAETORIAN SDA_604,2025-203C,2026-06-09T07:54:32.459040,13.83046952,.0004877,81.3058,18.3596,215.0779,145.0056,0,U,65567,999,3759,.72256E-4,.91E-6,0
PRAETORIAN SDA_605,2025-203D,2026-06-09T07:07:46.731360,13.83433725,.0007686,81.3023,18.0601,205.2325,154.8456,0,U,65568,999,3760,.39173E-4,.55E-6,0
PRAETORIAN SDA_606,2025-203E,2026-06-09T08:26:34.502208,13.83406606,.0005303,81.3059,18.2281,203.3685,156.7231,0,U,65569,999,3760,.38541E-4,.54E-6,0
PRAETORIAN SDA_607,2025-203F,2026-06-09T08:45:17.151840,13.84283404,.000824,81.3041,17.8913,209.5552,150.5140,0,U,65570,999,3762,.1601E-3,.191E-5,0
PRAETORIAN SDA_608,2025-203G,2026-06-09T08:08:56.307840,13.83816320,.0005394,81.3011,18.0735,214.0388,146.0423,0,U,65571,999,3760,.55426E-4,.73E-6,0
PRAETORIAN SDA_609,2025-203H,2026-06-09T08:19:24.485088,13.84284842,.0006339,81.3055,18.0514,206.8411,153.2419,0,U,65572,999,3761,.14772E-3,.177E-5,0
PRAETORIAN SDA_610,2025-203J,2026-06-09T07:40:04.323936,13.83851366,.0006055,81.3013,18.0502,211.1130,148.9668,0,U,65573,999,3760,.31032E-4,.46E-6,0
PRAETORIAN SDA_611,2025-203K,2026-06-09T07:36:45.343008,13.83306916,.0004916,81.3025,18.2124,216.8644,143.2175,0,U,65574,999,3759,.10539E-3,.128E-5,0
PRAETORIAN SDA_612,2025-203L,2026-06-09T07:35:56.412096,13.85038445,.0008669,81.3035,17.8180,209.1461,150.9214,0,U,65575,999,3762,.93681E-4,.118E-5,0
PRAETORIAN SDA_613,2025-203M,2026-06-09T02:29:25.565568,13.82764442,.00051441,81.3005,18.3997,207.2992,152.7894,0,U,65576,999,3756,.28799585E-4,.43E-6,0
PRAETORIAN SDA_614,2025-203N,2026-06-09T07:18:13.267008,13.84777791,.0006618,81.3019,17.9048,206.0713,154.0112,0,U,65577,999,3762,.3177E-4,.48E-6,0
PRAETORIAN SDA_615,2025-203P,2026-06-09T01:29:55.478688,13.84435865,.00084775,81.3027,18.0880,208.6209,151.4483,0,U,65578,999,3758,.17403143E-3,.207E-5,0
PRAETORIAN SDA_616,2025-203Q,2026-06-09T07:35:17.038752,13.83267340,.0004844,81.3069,18.3526,215.7184,144.3649,0,U,65579,999,3759,.68332E-4,.87E-6,0
PRAETORIAN SDA_617,2025-203R,2026-06-09T08:05:25.727712,13.83149911,.0006848,81.3041,18.1651,206.5712,153.5094,0,U,65580,999,3760,.3035E-4,.45E-6,0
PRAETORIAN SDA_618,2025-203S,2026-06-09T07:39:13.042944,13.84668212,.0009167,81.3027,17.7833,210.0612,150.0019,0,U,65581,999,3762,.19753E-3,.234E-5,0
PRAETORIAN SDA_619,2025-203T,2026-06-09T08:23:54.938688,13.83805084,.0007631,81.3049,18.0391,207.9157,152.1591,0,U,65582,999,3824,.12101E-3,.146E-5,0
PRAETORIAN SDA_620,2025-203U,2026-06-09T07:18:33.621120,13.83617614,.0007104,81.3036,18.1006,203.1797,156.9040,0,U,65583,999,3760,.1216E-3,.146E-5,0
PRAETORIAN SDA_621,2025-203V,2026-06-09T08:26:25.982304,13.83800775,.0006936,81.3025,17.9780,200.7141,159.3735,0,U,65584,999,3761,.57818E-4,.76E-6,0
PRAETORIAN SDA_601,2025-203W,2026-06-09T07:38:58.733376,13.83166574,.0004841,81.3051,18.2960,219.4278,140.6527,0,U,65585,999,3759,-.14852E-4,-.4E-7,0
